# Made by eph2tle, compiled Sep 15 2021 12:17:46
# Run at Thu Sep 16 13:26:00 2021
#
#    The following TLEs (Two-Line Elements) were generated by fitting
# a numerically-integrated ephemeris,  based on the orbit given below,
# to the SDP4/SGP4 models.  Each TLE is good for the interval between
# its epoch and the epoch of the subsequent TLE (usually one day).
# The maximum deviation between the numerically integrated ephemerides
# and the TLE-based ephemeris, in kilometers,  is given for each TLE
# as the "worst residual".
#
#    This fitting is done using the 'eph2tle' code packaged with Find_Orb.
# The code has details on how the TLEs were computed :
#
#    https://github.com/Bill-Gray/find_orb/eph2tle.cpp
#
#    Be warned:  the error given is that between the numerically
# integrated ephems and the TLE model.  There will usually be at
# least some additional difference between the ephems and the actual
# motion of the satellite,  especially if the ephemerides are based
# on a short arc.  If the following orbital elements say something
# like "[based on] 10 observations 2015 Jan. 1-13",  and the TLEs
# are for 2015 May,  the extrapolation may be tenuous at best.  If
# your application requires a specific level of accuracy,  you may
# want to contact me;  I can give you some idea as to the fit of the
# underlying data (and possibly TLEs based on newer data).
#
#   You can usually find the underlying observational data,  and the
# fitted orbit,  residuals,  ephemerides,  and sometimes some comments
# about the object,  among the pages listed at
#
#    https://www.projectpluto.com/pluto/mpecs/pseudo.htm
#
#    WARNING:  for this object,  "normal" TLEs cannot be fitted.  (This
# usually means an object with an hyperbolic or nearly-parabolic orbit.)
# For this and similar cases,   an alternative model is used,  in which
# most of the traditional TLE data is replaced by six signed 8-digit hex
# numbers.  These six numbers are a state vector,  numerically integrated
# using a simplified force model.  This is necessary for objects at L2 or
# L1,  and sometimes for objects in high orbits where the SDP4/SGP4 model
# fails.  I'll be posting source code for this.  But be aware:  it's my
# own extension,  doesn't work with other code,  and is therefore used
# only when necessary.
#
#    Also,  if you use a TLE outside the "correct" time range (between
# its MJD and that of the next TLE),  all bets are off.  I've carefully
# computed and minimized the worst error over the "correct" time frame,
# but the ephemeris may (or may not) diverge wildly outside of it.
#
# Ephem range: 59468.000000 59498.000000 1.000000
# Created Thu Sep 16 13:24:03 2021
# Ephemeris start: 11 Sep 2021  0:00:00
# Ephemeris end:   11 Oct 2021  0:00:00
# Times are all TDT
# Positions/velocities are in equatorial J2000
# Orbital elements:  Unk_Cislunar
#    Perilune 2021 Sep 12.21945 +/- 0.00182 TT =  5:16:00 (JD 2459469.71945)
# Epoch 2021 Sep 11.0 TT = JDT 2459468.5                        Find_Orb
# q 15700.2178 +/- 42.3               (J2000 ecliptic)
# H   23.0  G 0.15                    Peri.   84.63202 +/- 0.13
#                                     Node   201.16418 +/- 0.16
# e   1.0483045 +/- 0.00102           Incl.   54.74445 +/- 0.13
# 22 of 42 observations 2021 June 5-Sept. 13; mean residual 205".038
#
# 1 NoradU COSPAR   Epoch.epoch     dn/dt/2  d2n/dt2/6 BSTAR    T El# C
# 2 NoradU Inclina RAAscNode Eccent  ArgPeri MeanAno  MeanMotion Rev# C

# Worst residual: 276.53 km
# MJD 59468.000000 (2021 Sep 11  0:00)
Unk_Cislunar
1 99999U 00000    21253.99919926 -005FEAED -003NTOU3 -001PC2QEH 13554
2 99999                          +0005VHQH -0005M4JM -0000Y3X7     03

# Worst residual: 2372.43 km
# MJD 59469.000000 (2021 Sep 12  0:00)
Unk_Cislunar
1 99999U 00000    21254.99919926 -003PZD3E -004VJJNZ -001UCMH7H 13559
2 99999                          +0008UGA0 -0003URQ1 -0000B5I5     01

# Worst residual: 171.45 km
# MJD 59470.000000 (2021 Sep 13  0:00)
Unk_Cislunar
1 99999U 00000    21255.99919926 -001LMRR7 -0054G7XB -0025MBWMH 13553
2 99999                          +0007VCBN +0000G43Y -0001UYSE     03

# Worst residual: 39.00 km
# MJD 59471.000000 (2021 Sep 14  0:00)
Unk_Cislunar
1 99999U 00000    21256.99919926 +0006SYVM -004VDSH1 -002JH9FYH 13554
2 99999                          +00075ZSL +0001OOI8 -00018RYY     08

# Worst residual: 11.94 km
# MJD 59472.000000 (2021 Sep 15  0:00)
Unk_Cislunar
1 99999U 00000    21257.99919926 +001U6CES -004AW8AR -002QAEY0H 13554
2 99999                          +0006ISWR +00031YT7 -0000B7FP     02

# Worst residual: 5.28 km
# MJD 59473.000000 (2021 Sep 16  0:00)
Unk_Cislunar
1 99999U 00000    21258.99919926 +003AD18Y -003F2CD5 -002OQZWUH 13558
2 99999                          +0005HOC0 +00049LHB +0000NT55     05

# Worst residual: 3.05 km
# MJD 59474.000000 (2021 Sep 17  0:00)
Unk_Cislunar
1 99999U 00000    21259.99919926 +004G28KM -002A77VY -002F4YS4H 13555
2 99999                          +00044626 +00054HCS +0001JF7L     06

# Worst residual: 1.83 km
# MJD 59475.000000 (2021 Sep 18  0:00)
Unk_Cislunar
1 99999U 00000    21260.99919926 +0058X2HP -000ZQZY9 -001YNPJOH 13552
2 99999                          +0002JLHO +0005K0EL +00028P35     02

# Worst residual: 3.09 km
# MJD 59476.000000 (2021 Sep 19  0:00)
Unk_Cislunar
1 99999U 00000    21261.99919926 +005NW68I +000CLPWU -001D0MLLH 13557
2 99999                          +0000XAHP +0005KKCL +0002QBZ2     06

# Worst residual: 3.57 km
# MJD 59477.000000 (2021 Sep 20  0:00)
Unk_Cislunar
1 99999U 00000    21262.99919926 +005P3A0O +001NGYOC -000O32J2H 13554
2 99999                          -0000MNIF +00058013 +000305MZ     03

# Worst residual: 3.27 km
# MJD 59478.000000 (2021 Sep 21  0:00)
Unk_Cislunar
1 99999U 00000    21263.99919926 +005DFK7A +002TZ5YH +0002B021H 13552
2 99999                          -00021H9W +0004KL9T +00032KZW     08

# Worst residual: 2.47 km
# MJD 59479.000000 (2021 Sep 22  0:00)
Unk_Cislunar
1 99999U 00000    21264.99919926 +004QDE49 +003TS1W7 +000SG9K9H 13555
2 99999                          -00039FLR +0003OGYM +0002Y7YU     02

# Worst residual: 2.09 km
# MJD 59480.000000 (2021 Sep 23  0:00)
Unk_Cislunar
1 99999U 00000    21265.99919926 +003TPHB0 +004L0EN5 +001GSMSAH 13553
2 99999                          -00049CHY +0002LFVN +0002NNB1     06

# Worst residual: 2.30 km
# MJD 59481.000000 (2021 Sep 24  0:00)
Unk_Cislunar
1 99999U 00000    21266.99919926 +002PHE2B +0052717B +0021WG15H 13556
2 99999                          -00050A81 +0001CYDF +00027AT3     05

# Worst residual: 2.40 km
# MJD 59482.000000 (2021 Sep 25  0:00)
Unk_Cislunar
1 99999U 00000    21267.99919926 +001FYWSB +005861WC +002IF3KKH 13558
2 99999                          -0005H84D +000006YL +0001LG24     08

# Worst residual: 2.24 km
# MJD 59483.000000 (2021 Sep 26  0:00)
Unk_Cislunar
1 99999U 00000    21268.99919926 +0003Q6T5 +00521212 +002T1JWPH 13553
2 99999                          -0005MQ49 -0001FSSY +0000U6ND     04

# Worst residual: 2.17 km
# MJD 59484.000000 (2021 Sep 27  0:00)
Unk_Cislunar
1 99999U 00000    21269.99919926 -00188M6J +004J5353 +002WH4AWH 13554
2 99999                          -0005EFKU -0002XSRR -00002H9A     08

# Worst residual: 1.97 km
# MJD 59485.000000 (2021 Sep 28  0:00)
Unk_Cislunar
1 99999U 00000    21270.99919926 -002G72TJ +003N95I1 +002RFLEFH 13558
2 99999                          -0004OJ1C -0004FLYH -00014D2M     06

# Worst residual: 1.29 km
# MJD 59486.000000 (2021 Sep 29  0:00)
Unk_Cislunar
1 99999U 00000    21271.99919926 -003FA63S +002EWTB4 +002CROFSH 13558
2 99999                          -0003BGDF -0005SGJ3 -0002ABAT     03

# Worst residual: 0.74 km
# MJD 59487.000000 (2021 Sep 30  0:00)
Unk_Cislunar
1 99999U 00000    21272.99919926 -003Z6MQW +000WDE7W +001NWC99H 13554
2 99999                          -000154UE -0006QANA -0003GD74     00

# Worst residual: 0.47 km
# MJD 59488.000000 (2021 Oct  1  0:00)
Unk_Cislunar
1 99999U 00000    21273.99919926 -003WKTWZ -000QRYD4 +000PU0AHH 13558
2 99999                          +0001V5ZZ -0006R9UX -0004CMII     04

# Worst residual: 0.38 km
# MJD 59489.000000 (2021 Oct  2  0:00)
Unk_Cislunar
1 99999U 00000    21274.99919926 -0031WR2D -00282RZE -000D5547H 13552
2 99999                          +00057BZD -0005AWA6 -0004I7RJ     03

# Worst residual: 0.29 km
# MJD 59490.000000 (2021 Oct  3  0:00)
Unk_Cislunar
1 99999U 00000    21275.99919926 -001H82QM -00361H1T -001CTBJ3H 13550
2 99999                          +0007NLEE -0002DIA4 -0003KJJ4     09

# Worst residual: 0.27 km
# MJD 59491.000000 (2021 Oct  4  0:00)
Unk_Cislunar
1 99999U 00000    21276.99919926 +000GQZMQ -003BWMU5 -0020IFFHH 13554
2 99999                          +00087DOG +0000YXYH -0001UC0W     04

# Worst residual: 0.36 km
# MJD 59492.000000 (2021 Oct  5  0:00)
Unk_Cislunar
1 99999U 00000    21277.99919926 +002BN05Y -002RJ7TF -0028HR6FH 13557
2 99999                          +00072GMB +0003KAA0 -00001NGS     01

# Worst residual: 0.46 km
# MJD 59493.000000 (2021 Oct  6  0:00)
Unk_Cislunar
1 99999U 00000    21278.99919926 +003SL0FH -001PLKJN -0022H0XKH 13554
2 99999                          +00054ATL +00051F2F +0001CX0U     05

# Worst residual: 0.54 km
# MJD 59494.000000 (2021 Oct  7  0:00)
Unk_Cislunar
1 99999U 00000    21279.99919926 +004RPHEQ -000F49JD -001MEEHNH 13555
2 99999                          +00030QNK +0005LAP8 +0002ABDY     05

# Worst residual: 0.57 km
# MJD 59495.000000 (2021 Oct  8  0:00)
Unk_Cislunar
1 99999U 00000    21280.99919926 +005993AS +000X7S1R -00104B5VH 13552
2 99999                          +00012UZS +0005IH8K +0002T8R9     02

# Worst residual: 0.51 km
# MJD 59496.000000 (2021 Oct  9  0:00)
Unk_Cislunar
1 99999U 00000    21281.99919926 +005B4691 +0026ZNTM -000AOILKH 13552
2 99999                          -0000LODT +000511QN +0003162W     07

# Worst residual: 0.45 km
# MJD 59497.000000 (2021 Oct 10  0:00)
Unk_Cislunar
1 99999U 00000    21282.99919926 +004ZN3GV +003BDCSK +000FMFWQH 13559
2 99999                          -00020BE1 +0004A6YJ +00030U7C     01
Avg worst resid: 97.11 km
Worst residual in entire run: 2372.43 km on MJD 59469.0
       1     3     10    30    100   300   1K    3K    10K   km
    11     9     5     1     1     2     0     1     0     0
